CCSDS_OMM_VERS = 2.0
CREATION_DATE  = 
ORIGINATOR     = 

OBJECT_NAME    = STARLINK-36784
OBJECT_ID      = 2026-034AD
CENTER_NAME    = EARTH
REF_FRAME      = TEME
TIME_SYSTEM    = UTC
MEAN_ELEMENT_THEORY = SGP/SGP4

EPOCH          = 2026-03-01T12:00:02.998944
MEAN_MOTION    = 15.85168299
ECCENTRICITY   = .0000693
INCLINATION    = 53.1489
RA_OF_ASC_NODE = 252.1812
ARG_OF_PERICENTER = 92.2318
MEAN_ANOMALY   = 298.5625

EPHEMERIS_TYPE = 0
CLASSIFICATION_TYPE = U
NORAD_CAT_ID   = 67877
ELEMENT_SET_NO = 999
REV_AT_EPOCH   = 254
BSTAR          = -.68074E-2
MEAN_MOTION_DOT = -.1459874E-1
MEAN_MOTION_DDOT = 0

CCSDS_OMM_VERS = 2.0
CREATION_DATE  = 
ORIGINATOR     = 

OBJECT_NAME    = STARLINK-36689
OBJECT_ID      = 2026-034AE
CENTER_NAME    = EARTH
REF_FRAME      = TEME
TIME_SYSTEM    = UTC
MEAN_ELEMENT_THEORY = SGP/SGP4

EPOCH          = 2026-03-01T12:00:02.998944
MEAN_MOTION    = 15.85339138
ECCENTRICITY   = .0000727
INCLINATION    = 53.1489
RA_OF_ASC_NODE = 252.1743
ARG_OF_PERICENTER = 91.5125
MEAN_ANOMALY   = 302.6602

EPHEMERIS_TYPE = 0
CLASSIFICATION_TYPE = U
NORAD_CAT_ID   = 67878
ELEMENT_SET_NO = 999
REV_AT_EPOCH   = 254
BSTAR          = -.67002E-2
MEAN_MOTION_DOT = -.1421535E-1
MEAN_MOTION_DDOT = 0

CCSDS_OMM_VERS = 2.0
CREATION_DATE  = 
ORIGINATOR     = 

OBJECT_NAME    = STARLINK-36818
OBJECT_ID      = 2026-035A
CENTER_NAME    = EARTH
REF_FRAME      = TEME
TIME_SYSTEM    = UTC
MEAN_ELEMENT_THEORY = SGP/SGP4

EPOCH          = 2026-03-01T12:00:02.998944
MEAN_MOTION    = 16.03763255
ECCENTRICITY   = .0001063
INCLINATION    = 97.2809
RA_OF_ASC_NODE = 352.1610
ARG_OF_PERICENTER = 107.0857
MEAN_ANOMALY   = 206.9655

EPHEMERIS_TYPE = 0
CLASSIFICATION_TYPE = U
NORAD_CAT_ID   = 67879
ELEMENT_SET_NO = 999
REV_AT_EPOCH   = 243
BSTAR          = -.12519E-2
MEAN_MOTION_DOT = -.787807E-2
MEAN_MOTION_DDOT = .21995E-3

CCSDS_OMM_VERS = 2.0
CREATION_DATE  = 
ORIGINATOR     = 

OBJECT_NAME    = STARLINK-36821
OBJECT_ID      = 2026-035B
CENTER_NAME    = EARTH
REF_FRAME      = TEME
TIME_SYSTEM    = UTC
MEAN_ELEMENT_THEORY = SGP/SGP4

EPOCH          = 2026-03-01T12:00:02.998944
MEAN_MOTION    = 16.03970654
ECCENTRICITY   = .0001005
INCLINATION    = 97.2806
RA_OF_ASC_NODE = 352.1632
ARG_OF_PERICENTER = 96.8497
MEAN_ANOMALY   = 221.6072

EPHEMERIS_TYPE = 0
CLASSIFICATION_TYPE = U
NORAD_CAT_ID   = 67880
ELEMENT_SET_NO = 999
REV_AT_EPOCH   = 243
BSTAR          = -.12694E-2
MEAN_MOTION_DOT = -.808612E-2
MEAN_MOTION_DDOT = .23145E-3

CCSDS_OMM_VERS = 2.0
CREATION_DATE  = 
ORIGINATOR     = 

OBJECT_NAME    = STARLINK-36808
OBJECT_ID      = 2026-035C
CENTER_NAME    = EARTH
REF_FRAME      = TEME
TIME_SYSTEM    = UTC
MEAN_ELEMENT_THEORY = SGP/SGP4

EPOCH          = 2026-03-01T12:00:02.998944
MEAN_MOTION    = 16.03828641
ECCENTRICITY   = .0001016
INCLINATION    = 97.2806
RA_OF_ASC_NODE = 352.1620
ARG_OF_PERICENTER = 105.3436
MEAN_ANOMALY   = 210.3496

EPHEMERIS_TYPE = 0
CLASSIFICATION_TYPE = U
NORAD_CAT_ID   = 67881
ELEMENT_SET_NO = 999
REV_AT_EPOCH   = 243
BSTAR          = -.12276E-2
MEAN_MOTION_DOT = -.775572E-2
MEAN_MOTION_DDOT = .21381E-3

CCSDS_OMM_VERS = 2.0
CREATION_DATE  = 
ORIGINATOR     = 

OBJECT_NAME    = STARLINK-36817
OBJECT_ID      = 2026-035D
CENTER_NAME    = EARTH
REF_FRAME      = TEME
TIME_SYSTEM    = UTC
MEAN_ELEMENT_THEORY = SGP/SGP4

EPOCH          = 2026-03-01T12:00:02.998944
MEAN_MOTION    = 16.04243181
ECCENTRICITY   = .0001028
INCLINATION    = 97.2800
RA_OF_ASC_NODE = 352.1653
ARG_OF_PERICENTER = 114.5389
MEAN_ANOMALY   = 209.3097

EPHEMERIS_TYPE = 0
CLASSIFICATION_TYPE = U
NORAD_CAT_ID   = 67882
ELEMENT_SET_NO = 999
REV_AT_EPOCH   = 243
BSTAR          = -.13016E-2
MEAN_MOTION_DOT = -.84244E-2
MEAN_MOTION_DDOT = .25057E-3

CCSDS_OMM_VERS = 2.0
CREATION_DATE  = 
ORIGINATOR     = 

OBJECT_NAME    = STARLINK-36856
OBJECT_ID      = 2026-035E
CENTER_NAME    = EARTH
REF_FRAME      = TEME
TIME_SYSTEM    = UTC
MEAN_ELEMENT_THEORY = SGP/SGP4

EPOCH          = 2026-03-01T12:00:02.998944
MEAN_MOTION    = 16.04117450
ECCENTRICITY   = .0001
INCLINATION    = 97.2804
RA_OF_ASC_NODE = 352.1642
ARG_OF_PERICENTER = 99.7223
MEAN_ANOMALY   = 221.6257

EPHEMERIS_TYPE = 0
CLASSIFICATION_TYPE = U
NORAD_CAT_ID   = 67883
ELEMENT_SET_NO = 999
REV_AT_EPOCH   = 243
BSTAR          = -.13151E-2
MEAN_MOTION_DOT = -.8448E-2
MEAN_MOTION_DDOT = .25149E-3

CCSDS_OMM_VERS = 2.0
CREATION_DATE  = 
ORIGINATOR     = 

OBJECT_NAME    = STARLINK-36842
OBJECT_ID      = 2026-035F
CENTER_NAME    = EARTH
REF_FRAME      = TEME
TIME_SYSTEM    = UTC
MEAN_ELEMENT_THEORY = SGP/SGP4

EPOCH          = 2026-03-01T12:00:02.998944
MEAN_MOTION    = 16.04352123
ECCENTRICITY   = .0001001
INCLINATION    = 97.2802
RA_OF_ASC_NODE = 352.1661
ARG_OF_PERICENTER = 97.3885
MEAN_ANOMALY   = 228.7691

EPHEMERIS_TYPE = 0
CLASSIFICATION_TYPE = U
NORAD_CAT_ID   = 67884
ELEMENT_SET_NO = 999
REV_AT_EPOCH   = 243
BSTAR          = -.13638E-2
MEAN_MOTION_DOT = -.888137E-2
MEAN_MOTION_DDOT = .27673E-3

CCSDS_OMM_VERS = 2.0
CREATION_DATE  = 
ORIGINATOR     = 

OBJECT_NAME    = STARLINK-36826
OBJECT_ID      = 2026-035G
CENTER_NAME    = EARTH
REF_FRAME      = TEME
TIME_SYSTEM    = UTC
MEAN_ELEMENT_THEORY = SGP/SGP4

EPOCH          = 2026-03-01T12:00:02.998944
MEAN_MOTION    = 16.04431833
ECCENTRICITY   = .0001023
INCLINATION    = 97.2801
RA_OF_ASC_NODE = 352.1670
ARG_OF_PERICENTER = 101.0477
MEAN_ANOMALY   = 226.9110

EPHEMERIS_TYPE = 0
CLASSIFICATION_TYPE = U
NORAD_CAT_ID   = 67885
ELEMENT_SET_NO = 999
REV_AT_EPOCH   = 243
BSTAR          = -.13545E-2
MEAN_MOTION_DOT = -.886313E-2
MEAN_MOTION_DDOT = .27595E-3

CCSDS_OMM_VERS = 2.0
CREATION_DATE  = 
ORIGINATOR     = 

OBJECT_NAME    = STARLINK-36390
OBJECT_ID      = 2026-035H
CENTER_NAME    = EARTH
REF_FRAME      = TEME
TIME_SYSTEM    = UTC
MEAN_ELEMENT_THEORY = SGP/SGP4

EPOCH          = 2026-03-01T12:00:02.998944
MEAN_MOTION    = 16.04564461
ECCENTRICITY   = .0000945
INCLINATION    = 97.2799
RA_OF_ASC_NODE = 352.1682
ARG_OF_PERICENTER = 91.7761
MEAN_ANOMALY   = 239.0335

EPHEMERIS_TYPE = 0
CLASSIFICATION_TYPE = U
NORAD_CAT_ID   = 67886
ELEMENT_SET_NO = 999
REV_AT_EPOCH   = 248
BSTAR          = -.13706E-2
MEAN_MOTION_DOT = -.903889E-2
MEAN_MOTION_DDOT = .28664E-3

CCSDS_OMM_VERS = 2.0
CREATION_DATE  = 
ORIGINATOR     = 

OBJECT_NAME    = STARLINK-36368
OBJECT_ID      = 2026-035J
CENTER_NAME    = EARTH
REF_FRAME      = TEME
TIME_SYSTEM    = UTC
MEAN_ELEMENT_THEORY = SGP/SGP4

EPOCH          = 2026-03-01T12:00:02.998944
MEAN_MOTION    = 16.04680645
ECCENTRICITY   = .0000971
INCLINATION    = 97.2798
RA_OF_ASC_NODE = 352.1694
ARG_OF_PERICENTER = 93.5118
MEAN_ANOMALY   = 239.9893

EPHEMERIS_TYPE = 0
CLASSIFICATION_TYPE = U
NORAD_CAT_ID   = 67887
ELEMENT_SET_NO = 999
REV_AT_EPOCH   = 243
BSTAR          = -.13509E-2
MEAN_MOTION_DOT = -.89717E-2
MEAN_MOTION_DDOT = .2831E-3

CCSDS_OMM_VERS = 2.0
CREATION_DATE  = 
ORIGINATOR     = 

OBJECT_NAME    = STARLINK-36801
OBJECT_ID      = 2026-035K
CENTER_NAME    = EARTH
REF_FRAME      = TEME
TIME_SYSTEM    = UTC
MEAN_ELEMENT_THEORY = SGP/SGP4

EPOCH          = 2026-03-01T12:00:02.998944
MEAN_MOTION    = 16.04795354
ECCENTRICITY   = .0000989
INCLINATION    = 97.2796
RA_OF_ASC_NODE = 352.1704
ARG_OF_PERICENTER = 99.6454
MEAN_ANOMALY   = 236.4419

EPHEMERIS_TYPE = 0
CLASSIFICATION_TYPE = U
NORAD_CAT_ID   = 67888
ELEMENT_SET_NO = 999
REV_AT_EPOCH   = 243
BSTAR          = -.13544E-2
MEAN_MOTION_DOT = -.905672E-2
MEAN_MOTION_DDOT = .28849E-3

