STARLINK-36784          
1 67877U 26034AD  26060.50003471 -.01459874  00000+0 -68074-2 0  9990
2 67877  53.1489 252.1812 0000693  92.2318 298.5625 15.85168299  2543
STARLINK-36689          
1 67878U 26034AE  26060.50003471 -.01421535  00000+0 -67002-2 0  9994
2 67878  53.1489 252.1743 0000727  91.5125 302.6602 15.85339138  2547
STARLINK-36818          
1 67879U 26035A   26060.50003471 -.00787807  21995-3 -12519-2 0  9995
2 67879  97.2809 352.1610 0001063 107.0857 206.9655 16.03763255  2430
STARLINK-36821          
1 67880U 26035B   26060.50003471 -.00808612  23145-3 -12694-2 0  9998
2 67880  97.2806 352.1632 0001005  96.8497 221.6072 16.03970654  2434
STARLINK-36808          
1 67881U 26035C   26060.50003471 -.00775572  21381-3 -12276-2 0  9993
2 67881  97.2806 352.1620 0001016 105.3436 210.3496 16.03828641  2436
STARLINK-36817          
1 67882U 26035D   26060.50003471 -.00842440  25057-3 -13016-2 0  9990
2 67882  97.2800 352.1653 0001028 114.5389 209.3097 16.04243181  2435
STARLINK-36856          
1 67883U 26035E   26060.50003471 -.00844800  25149-3 -13151-2 0  9995
2 67883  97.2804 352.1642 0001000  99.7223 221.6257 16.04117450  2433
STARLINK-36842          
1 67884U 26035F   26060.50003471 -.00888137  27673-3 -13638-2 0  9991
2 67884  97.2802 352.1661 0001001  97.3885 228.7691 16.04352123  2430
STARLINK-36826          
1 67885U 26035G   26060.50003471 -.00886313  27595-3 -13545-2 0  9996
2 67885  97.2801 352.1670 0001023 101.0477 226.9110 16.04431833  2436
STARLINK-36390          
1 67886U 26035H   26060.50003471 -.00903889  28664-3 -13706-2 0  9992
2 67886  97.2799 352.1682 0000945  91.7761 239.0335 16.04564461  2482
STARLINK-36368          
1 67887U 26035J   26060.50003471 -.00897170  28310-3 -13509-2 0  9997
2 67887  97.2798 352.1694 0000971  93.5118 239.9893 16.04680645  2436
STARLINK-36801          
1 67888U 26035K   26060.50003471 -.00905672  28849-3 -13544-2 0  9991
2 67888  97.2796 352.1704 0000989  99.6454 236.4419 16.04795354  2436
